CZ-2D R/B               
1 65946U 25227B   25310.76717118  .00013759  00000+0  50621-3 0  9998
2 65946  80.1559  70.0309 0021241 314.9613  44.9895 15.27553503  3723
KUIPER-00101            
1 65947U 25228A   25310.78281067  .00163615  00000+0  46822-2 0  9995
2 65947  51.8780 193.8041 0005664 208.8582 151.2091 15.34806727  4895
KUIPER-00113            
1 65948U 25228B   25310.77869720  .00022665  00000+0  66160-3 0  9990
2 65948  51.8783 193.7827 0006101 215.5848 144.4731 15.35220209  4898
KUIPER-00117            
1 65949U 25228C   25310.77936454  .00020467  00000+0  59963-3 0  9991
2 65949  51.8784 193.7860 0005922 215.4490 144.6103 15.35170824  4891
KUIPER-00121            
1 65950U 25228D   25310.78860722  .00029466  00000+0  87331-3 0  9996
2 65950  51.8799 193.8488 0005393 233.9551 126.0935 15.34595591  4899
KUIPER-00122            
1 65951U 25228E   25310.83336806 -.00695656  00000+0 -26230-1 0  9995
2 65951  51.8824 193.8241 0007122 249.8456 270.0139 15.29075297  3523
KUIPER-00123            
1 65952U 25228F   25310.83336806 -.00689124  00000+0 -27001-1 0  9996
2 65952  51.8823 193.8014 0005434 246.4972 263.5531 15.27823159  1821
KUIPER-00124            
1 65953U 25228G   25310.79129312  .00024521  00000+0  73348-3 0  9993
2 65953  51.8788 193.8642 0005264 244.1162 115.9281 15.34406386  4895
KUIPER-00125            
1 65954U 25228H   25310.78484038  .00020846  00000+0  61731-3 0  9991
2 65954  51.8781 193.8159 0005469 224.2091 135.8458 15.34824055  4893
KUIPER-00126            
1 65955U 25228J   25310.83336806 -.00639236  00000+0 -21075-1 0  9993
2 65955  51.8789 193.6428 0005564 246.5863 351.6299 15.33172741  4325
KUIPER-00127            
1 65956U 25228K   25310.77989774  .00023058  00000+0  67463-3 0  9995
2 65956  51.8784 193.7893 0005847 215.7144 144.3451 15.35138468  4891
KUIPER-00128            
1 65957U 25228L   25310.78327978  .00035647  00000+0  10420-2 0  9996
2 65957  51.8788 193.8141 0005594 220.2136 139.8436 15.34932553  4892
