CCSDS_OMM_VERS = 2.0
CREATION_DATE  = 
ORIGINATOR     = 

OBJECT_NAME    = CZ-2D R/B
OBJECT_ID      = 2025-227B
CENTER_NAME    = EARTH
REF_FRAME      = TEME
TIME_SYSTEM    = UTC
MEAN_ELEMENT_THEORY = SGP/SGP4

EPOCH          = 2025-11-06T18:24:43.589952
MEAN_MOTION    = 15.27553503
ECCENTRICITY   = .0021241
INCLINATION    = 80.1559
RA_OF_ASC_NODE = 70.0309
ARG_OF_PERICENTER = 314.9613
MEAN_ANOMALY   = 44.9895

EPHEMERIS_TYPE = 0
CLASSIFICATION_TYPE = U
NORAD_CAT_ID   = 65946
ELEMENT_SET_NO = 999
REV_AT_EPOCH   = 372
BSTAR          = .50621E-3
MEAN_MOTION_DOT = .13759E-3
MEAN_MOTION_DDOT = 0

CCSDS_OMM_VERS = 2.0
CREATION_DATE  = 
ORIGINATOR     = 

OBJECT_NAME    = KUIPER-00101
OBJECT_ID      = 2025-228A
CENTER_NAME    = EARTH
REF_FRAME      = TEME
TIME_SYSTEM    = UTC
MEAN_ELEMENT_THEORY = SGP/SGP4

EPOCH          = 2025-11-06T18:47:14.841888
MEAN_MOTION    = 15.34806727
ECCENTRICITY   = .0005664
INCLINATION    = 51.8780
RA_OF_ASC_NODE = 193.8041
ARG_OF_PERICENTER = 208.8582
MEAN_ANOMALY   = 151.2091

EPHEMERIS_TYPE = 0
CLASSIFICATION_TYPE = U
NORAD_CAT_ID   = 65947
ELEMENT_SET_NO = 999
REV_AT_EPOCH   = 489
BSTAR          = .46822E-2
MEAN_MOTION_DOT = .163615E-2
MEAN_MOTION_DDOT = 0

CCSDS_OMM_VERS = 2.0
CREATION_DATE  = 
ORIGINATOR     = 

OBJECT_NAME    = KUIPER-00113
OBJECT_ID      = 2025-228B
CENTER_NAME    = EARTH
REF_FRAME      = TEME
TIME_SYSTEM    = UTC
MEAN_ELEMENT_THEORY = SGP/SGP4

EPOCH          = 2025-11-06T18:41:19.438080
MEAN_MOTION    = 15.35220209
ECCENTRICITY   = .0006101
INCLINATION    = 51.8783
RA_OF_ASC_NODE = 193.7827
ARG_OF_PERICENTER = 215.5848
MEAN_ANOMALY   = 144.4731

EPHEMERIS_TYPE = 0
CLASSIFICATION_TYPE = U
NORAD_CAT_ID   = 65948
ELEMENT_SET_NO = 999
REV_AT_EPOCH   = 489
BSTAR          = .6616E-3
MEAN_MOTION_DOT = .22665E-3
MEAN_MOTION_DDOT = 0

CCSDS_OMM_VERS = 2.0
CREATION_DATE  = 
ORIGINATOR     = 

OBJECT_NAME    = KUIPER-00117
OBJECT_ID      = 2025-228C
CENTER_NAME    = EARTH
REF_FRAME      = TEME
TIME_SYSTEM    = UTC
MEAN_ELEMENT_THEORY = SGP/SGP4

EPOCH          = 2025-11-06T18:42:17.096256
MEAN_MOTION    = 15.35170824
ECCENTRICITY   = .0005922
INCLINATION    = 51.8784
RA_OF_ASC_NODE = 193.7860
ARG_OF_PERICENTER = 215.4490
MEAN_ANOMALY   = 144.6103

EPHEMERIS_TYPE = 0
CLASSIFICATION_TYPE = U
NORAD_CAT_ID   = 65949
ELEMENT_SET_NO = 999
REV_AT_EPOCH   = 489
BSTAR          = .59963E-3
MEAN_MOTION_DOT = .20467E-3
MEAN_MOTION_DDOT = 0

CCSDS_OMM_VERS = 2.0
CREATION_DATE  = 
ORIGINATOR     = 

OBJECT_NAME    = KUIPER-00121
OBJECT_ID      = 2025-228D
CENTER_NAME    = EARTH
REF_FRAME      = TEME
TIME_SYSTEM    = UTC
MEAN_ELEMENT_THEORY = SGP/SGP4

EPOCH          = 2025-11-06T18:55:35.663808
MEAN_MOTION    = 15.34595591
ECCENTRICITY   = .0005393
INCLINATION    = 51.8799
RA_OF_ASC_NODE = 193.8488
ARG_OF_PERICENTER = 233.9551
MEAN_ANOMALY   = 126.0935

EPHEMERIS_TYPE = 0
CLASSIFICATION_TYPE = U
NORAD_CAT_ID   = 65950
ELEMENT_SET_NO = 999
REV_AT_EPOCH   = 489
BSTAR          = .87331E-3
MEAN_MOTION_DOT = .29466E-3
MEAN_MOTION_DDOT = 0

CCSDS_OMM_VERS = 2.0
CREATION_DATE  = 
ORIGINATOR     = 

OBJECT_NAME    = KUIPER-00122
OBJECT_ID      = 2025-228E
CENTER_NAME    = EARTH
REF_FRAME      = TEME
TIME_SYSTEM    = UTC
MEAN_ELEMENT_THEORY = SGP/SGP4

EPOCH          = 2025-11-06T20:00:03.000384
MEAN_MOTION    = 15.29075297
ECCENTRICITY   = .0007122
INCLINATION    = 51.8824
RA_OF_ASC_NODE = 193.8241
ARG_OF_PERICENTER = 249.8456
MEAN_ANOMALY   = 270.0139

EPHEMERIS_TYPE = 0
CLASSIFICATION_TYPE = U
NORAD_CAT_ID   = 65951
ELEMENT_SET_NO = 999
REV_AT_EPOCH   = 352
BSTAR          = -.2623E-1
MEAN_MOTION_DOT = -.695656E-2
MEAN_MOTION_DDOT = 0

CCSDS_OMM_VERS = 2.0
CREATION_DATE  = 
ORIGINATOR     = 

OBJECT_NAME    = KUIPER-00123
OBJECT_ID      = 2025-228F
CENTER_NAME    = EARTH
REF_FRAME      = TEME
TIME_SYSTEM    = UTC
MEAN_ELEMENT_THEORY = SGP/SGP4

EPOCH          = 2025-11-06T20:00:03.000384
MEAN_MOTION    = 15.27823159
ECCENTRICITY   = .0005434
INCLINATION    = 51.8823
RA_OF_ASC_NODE = 193.8014
ARG_OF_PERICENTER = 246.4972
MEAN_ANOMALY   = 263.5531

EPHEMERIS_TYPE = 0
CLASSIFICATION_TYPE = U
NORAD_CAT_ID   = 65952
ELEMENT_SET_NO = 999
REV_AT_EPOCH   = 182
BSTAR          = -.27001E-1
MEAN_MOTION_DOT = -.689124E-2
MEAN_MOTION_DDOT = 0

CCSDS_OMM_VERS = 2.0
CREATION_DATE  = 
ORIGINATOR     = 

OBJECT_NAME    = KUIPER-00124
OBJECT_ID      = 2025-228G
CENTER_NAME    = EARTH
REF_FRAME      = TEME
TIME_SYSTEM    = UTC
MEAN_ELEMENT_THEORY = SGP/SGP4

EPOCH          = 2025-11-06T18:59:27.725568
MEAN_MOTION    = 15.34406386
ECCENTRICITY   = .0005264
INCLINATION    = 51.8788
RA_OF_ASC_NODE = 193.8642
ARG_OF_PERICENTER = 244.1162
MEAN_ANOMALY   = 115.9281

EPHEMERIS_TYPE = 0
CLASSIFICATION_TYPE = U
NORAD_CAT_ID   = 65953
ELEMENT_SET_NO = 999
REV_AT_EPOCH   = 489
BSTAR          = .73348E-3
MEAN_MOTION_DOT = .24521E-3
MEAN_MOTION_DDOT = 0

CCSDS_OMM_VERS = 2.0
CREATION_DATE  = 
ORIGINATOR     = 

OBJECT_NAME    = KUIPER-00125
OBJECT_ID      = 2025-228H
CENTER_NAME    = EARTH
REF_FRAME      = TEME
TIME_SYSTEM    = UTC
MEAN_ELEMENT_THEORY = SGP/SGP4

EPOCH          = 2025-11-06T18:50:10.208832
MEAN_MOTION    = 15.34824055
ECCENTRICITY   = .0005469
INCLINATION    = 51.8781
RA_OF_ASC_NODE = 193.8159
ARG_OF_PERICENTER = 224.2091
MEAN_ANOMALY   = 135.8458

EPHEMERIS_TYPE = 0
CLASSIFICATION_TYPE = U
NORAD_CAT_ID   = 65954
ELEMENT_SET_NO = 999
REV_AT_EPOCH   = 489
BSTAR          = .61731E-3
MEAN_MOTION_DOT = .20846E-3
MEAN_MOTION_DDOT = 0

CCSDS_OMM_VERS = 2.0
CREATION_DATE  = 
ORIGINATOR     = 

OBJECT_NAME    = KUIPER-00126
OBJECT_ID      = 2025-228J
CENTER_NAME    = EARTH
REF_FRAME      = TEME
TIME_SYSTEM    = UTC
MEAN_ELEMENT_THEORY = SGP/SGP4

EPOCH          = 2025-11-06T20:00:03.000384
MEAN_MOTION    = 15.33172741
ECCENTRICITY   = .0005564
INCLINATION    = 51.8789
RA_OF_ASC_NODE = 193.6428
ARG_OF_PERICENTER = 246.5863
MEAN_ANOMALY   = 351.6299

EPHEMERIS_TYPE = 0
CLASSIFICATION_TYPE = U
NORAD_CAT_ID   = 65955
ELEMENT_SET_NO = 999
REV_AT_EPOCH   = 432
BSTAR          = -.21075E-1
MEAN_MOTION_DOT = -.639236E-2
MEAN_MOTION_DDOT = 0

CCSDS_OMM_VERS = 2.0
CREATION_DATE  = 
ORIGINATOR     = 

OBJECT_NAME    = KUIPER-00127
OBJECT_ID      = 2025-228K
CENTER_NAME    = EARTH
REF_FRAME      = TEME
TIME_SYSTEM    = UTC
MEAN_ELEMENT_THEORY = SGP/SGP4

EPOCH          = 2025-11-06T18:43:03.164736
MEAN_MOTION    = 15.35138468
ECCENTRICITY   = .0005847
INCLINATION    = 51.8784
RA_OF_ASC_NODE = 193.7893
ARG_OF_PERICENTER = 215.7144
MEAN_ANOMALY   = 144.3451

EPHEMERIS_TYPE = 0
CLASSIFICATION_TYPE = U
NORAD_CAT_ID   = 65956
ELEMENT_SET_NO = 999
REV_AT_EPOCH   = 489
BSTAR          = .67463E-3
MEAN_MOTION_DOT = .23058E-3
MEAN_MOTION_DDOT = 0

CCSDS_OMM_VERS = 2.0
CREATION_DATE  = 
ORIGINATOR     = 

OBJECT_NAME    = KUIPER-00128
OBJECT_ID      = 2025-228L
CENTER_NAME    = EARTH
REF_FRAME      = TEME
TIME_SYSTEM    = UTC
MEAN_ELEMENT_THEORY = SGP/SGP4

EPOCH          = 2025-11-06T18:47:55.372992
MEAN_MOTION    = 15.34932553
ECCENTRICITY   = .0005594
INCLINATION    = 51.8788
RA_OF_ASC_NODE = 193.8141
ARG_OF_PERICENTER = 220.2136
MEAN_ANOMALY   = 139.8436

EPHEMERIS_TYPE = 0
CLASSIFICATION_TYPE = U
NORAD_CAT_ID   = 65957
ELEMENT_SET_NO = 999
REV_AT_EPOCH   = 489
BSTAR          = .1042E-2
MEAN_MOTION_DOT = .35647E-3
MEAN_MOTION_DDOT = 0

